GPS BIIA-10 (PRN 32)    
1 20959U 90103A   15341.83748129  .00000095  00000-0  00000+0 0  9997
2 20959  54.2492 187.2104 0113298   9.6831 350.6179  2.00566470183325
GPS BIIR-2  (PRN 13)    
1 24876U 97035A   15342.15082082 -.00000013  00000-0  00000+0 0  9996
2 24876  55.7281 249.0700 0044410 116.7192 243.7850  2.00562250134659
GPS BIIR-3  (PRN 11)    
1 25933U 99055A   15342.24004476 -.00000017  00000-0  00000+0 0  9990
2 25933  51.2789 102.1054 0160676  85.0975 262.6253  2.00566463118478
GPS BIIR-4  (PRN 20)    
1 26360U 00025A   15342.56814692  .00000097  00000-0  00000+0 0  9995
2 26360  53.0691 178.1036 0048109  73.0881 256.1952  2.00563200114170
GPS BIIR-5  (PRN 28)    
1 26407U 00040A   15342.40550956 -.00000052  00000-0  00000+0 0  9999
2 26407  56.6924   6.8434 0202163 266.0076 222.7687  2.00561048112845
GPS BIIR-6  (PRN 14)    
1 26605U 00071A   15342.52289098 -.00000005  00000-0  00000+0 0  9990
2 26605  55.2973 246.9974 0085584 249.0174 260.0326  2.00561107110441
GPS BIIR-7  (PRN 18)    
1 26690U 01004A   15342.41655550  .00000097  00000-0  00000+0 0  9999
2 26690  52.9985 181.0927 0166006 249.9154 275.4948  2.00566015108849
GPS BIIR-8  (PRN 16)    
1 27663U 03005A   15342.28316405 -.00000052  00000-0  00000+0 0  9993
2 27663  56.7690   6.5533 0081800  16.2783 148.7577  2.00564810 94205
GPS BIIR-9  (PRN 21)    
1 27704U 03010A   15341.27522072  .00000030  00000-0  00000+0 0  9997
2 27704  53.5827 121.4066 0229831 253.8052 223.4887  2.00558815 92988
GPS BIIR-10 (PRN 22)    
1 28129U 03058A   15341.73603903  .00000095  00000-0  00000+0 0  9996
2 28129  52.8745 181.1676 0082026 243.2997 115.9318  2.00563689 87696
GPS BIIR-11 (PRN 19)    
1 28190U 04009A   15342.29088067 -.00000059  00000-0  00000+0 0  9992
2 28190  55.6715  68.0281 0111558  37.1125 329.8790  2.00388469 85883
GPS BIIR-12 (PRN 23)    
1 28361U 04023A   15342.32958461 -.00000000  00000-0  00000+0 0  9992
2 28361  54.2623 242.6869 0104979 210.9826  52.0981  2.00552970 83960
GPS BIIR-13 (PRN 02)    
1 28474U 04045A   15342.56153228  .00000024  00000-0  00000+0 0  9990
2 28474  53.9765 120.5964 0152613 234.1876 198.4920  2.00562517 81334
GPS BIIRM-1 (PRN 17)    
1 28874U 05038A   15342.36934976 -.00000060  00000-0  00000+0 0  9993
2 28874  55.8394  65.2102 0109802 246.7481 152.7806  2.00571895 74730
GPS BIIRM-2 (PRN 31)    
1 29486U 06042A   15342.53590953 -.00000061  00000-0  00000+0 0  9992
2 29486  55.7592 304.5127 0084229 330.9004 111.6436  2.00566562 67456
GPS BIIRM-3 (PRN 12)    
1 29601U 06052A   15342.36529837 -.00000052  00000-0  00000+0 0  9996
2 29601  56.7391   5.4763 0054505  34.5092 325.9016  2.00577014 66361
GPS BIIRM-4 (PRN 15)    
1 32260U 07047A   15342.18639293  .00000003  00000-0  00000+0 0  9999
2 32260  53.3923 239.5313 0077641  24.0763 336.3506  2.00552676 59747
GPS BIIRM-5 (PRN 29)    
1 32384U 07062A   15342.55035825 -.00000059  00000-0  00000+0 0  9997
2 32384  55.8917  65.7504 0010490 315.7731  81.3769  2.00566672 58488
GPS BIIRM-6 (PRN 07)    
1 32711U 08012A   15342.09694651 -.00000063  00000-0  00000+0 0  9999
2 32711  55.4813 304.0378 0091248 207.8030 151.6991  2.00562349 56667
GPS BIIRM-8 (PRN 05)    
1 35752U 09043A   15342.55083847  .00000100  00000-0  00000+0 0  9993
2 35752  54.2238 182.0830 0044618  24.8078 332.7609  2.00561135 46241
GPS BIIF-1  (PRN 25)    
1 36585U 10022A   15342.39491948 -.00000053  00000-0  00000+0 0  9992
2 36585  56.0722   2.6741 0046336  38.0539 311.5386  2.00573887 40495
GPS BIIF-2  (PRN 01)    
1 37753U 11036A   15342.29071258  .00000032  00000-0  00000+0 0  9999
2 37753  55.1966 123.0027 0047710  25.9442 333.4929  2.00565493 32179
GPS BIIF-3  (PRN 24)    
1 38833U 12053A   15342.28072249 -.00000064  00000-0  00000+0 0  9995
2 38833  54.5145 301.4974 0038107  14.2709 345.8268  2.00566897 23252
GPS BIIF-4  (PRN 27)    
1 39166U 13023A   15342.13882186 -.00000064  00000-0  00000+0 0  9996
2 39166  55.5488  62.4170 0027786   9.9589 350.1193  2.00559562 18771
GPS BIIF-5  (PRN 30)    
1 39533U 14008A   15342.13814133 -.00000064  00000-0  00000+0 0  9995
2 39533  54.6667 306.7052 0016698 187.6438 172.3235  2.00564658 13136
GPS BIIF-6  (PRN 06)    
1 39741U 14026A   15342.41592134  .00000031  00000-0  00000+0 0  9994
2 39741  55.1884 122.5131 0003237 226.9669 132.9827  2.00572795 11424
GPS BIIF-7  (PRN 09)    
1 40105U 14045A   15342.00998554 -.00000003  00000-0  00000+0 0  9992
2 40105  54.7795 242.3092 0002775 134.6082 225.4749  2.00562688  9870
GPS BIIF-8  (PRN 03)    
1 40294U 14068A   15341.87404710  .00000100  00000-0  00000+0 0  9993
2 40294  54.9607 182.6606 0004695 213.1695 146.8782  2.00578326  8087
GPS BIIF-9  (PRN 26)    
1 40534U 15013A   15342.01620539 -.00000057  00000-0  00000+0 0  9999
2 40534  55.0436   2.3469 0006109 320.3013  39.7063  2.00563629  5155
GPS BIIF-10  (PRN 08)   
1 40730U 15033A   15341.67873341 -.00000067  00000-0  00000+0 0  9992
2 40730  55.0854  62.3593 0018402 268.2509  91.5603  2.00570575  2904
GPS BIIF-11  (PRN 10)   
1 41019U 15062A   15339.39193380  .00000082  00000-0  00000+0 0  9995
2 41019  54.9865 182.5263 0008710 205.6679 154.3216  1.97373612   687
